PLEIADES NEO 3          
1 48268U 21034A   26191.34925237  .00000294  00000+0  44035-4 0  9996
2 48268  97.8936 265.7826 0001324  94.1103 266.0261 14.81674452281080
PLEIADES NEO 4          
1 49070U 21073E   26191.31547545  .00001162  00000+0  15422-3 0  9992
2 49070  97.8935 265.7458 0001364  93.6947 266.4422 14.81674967264799
