{"fetched_at":"2026-07-10T18:08:25.780Z","source":"https://celestrak.org/NORAD/elements/gp.php?NAME=PLEIADES&FORMAT=JSON","constellation":"pleiades-neo","records":[{"OBJECT_NAME":"PLEIADES NEO 3","OBJECT_ID":"2021-034A","EPOCH":"2026-07-10T08:22:55.404768","CLASSIFICATION_TYPE":"U","MEAN_MOTION":14.81674452,"ECCENTRICITY":0.00013244,"INCLINATION":97.8936,"RA_OF_ASC_NODE":265.7826,"ARG_OF_PERICENTER":94.1103,"MEAN_ANOMALY":266.0261,"EPHEMERIS_TYPE":0,"NORAD_CAT_ID":48268,"ELEMENT_SET_NO":999,"REV_AT_EPOCH":28108,"BSTAR":0.000044034687,"MEAN_MOTION_DOT":0.00000294,"MEAN_MOTION_DDOT":0},{"OBJECT_NAME":"PLEIADES NEO 4","OBJECT_ID":"2021-073E","EPOCH":"2026-07-10T07:34:17.078880","CLASSIFICATION_TYPE":"U","MEAN_MOTION":14.81674967,"ECCENTRICITY":0.00013645,"INCLINATION":97.8935,"RA_OF_ASC_NODE":265.7458,"ARG_OF_PERICENTER":93.6947,"MEAN_ANOMALY":266.4422,"EPHEMERIS_TYPE":0,"NORAD_CAT_ID":49070,"ELEMENT_SET_NO":999,"REV_AT_EPOCH":26479,"BSTAR":0.00015421831,"MEAN_MOTION_DOT":0.00001162,"MEAN_MOTION_DDOT":0}]}
